COMMENT,ORIGINATOR,NORAD_CAT_ID,OBJECT_NAME,OBJECT_TYPE,CLASSIFICATION_TYPE,INTLDES,EPOCH,EPOCH_MICROSECONDS,MEAN_MOTION,ECCENTRICITY,INCLINATION,RA_OF_ASC_NODE,ARG_OF_PERICENTER,MEAN_ANOMALY,EPHEMERIS_TYPE,ELEMENT_SET_NO,REV_AT_EPOCH,BSTAR,MEAN_MOTION_DOT,MEAN_MOTION_DDOT,FILE,TLE_LINE0,TLE_LINE1,TLE_LINE2,OBJECT_ID,OBJECT_NUMBER,SEMIMAJOR_AXIS,PERIOD,APOGEE,PERIGEE,DECAYED,date
GENERATED VIA SPACETRACK.ORG API,18 SPCS,52183,SPACEBEE-133,PAYLOAD,U,22033AC,2023/3/3 4:53,86912,15.34583617,0.0007897,97.3564,145.4149,185.0939,175.0225,0,999,5115,0.0021125,0.00071348,0,3850163,0 SPACEBEE-133,1 52183U 22033AC  23062.20407508  .00071348  00000-0  21125-2 0  9994,2 52183  97.3564 145.4149 0007897 185.0939 175.0225 15.34583617 51156,2022-033AC,52183,6840.295,93.837,467.561,456.758,1,
GENERATED VIA SPACETRACK.ORG API,18 SPCS,52183,SPACEBEE-133,PAYLOAD,U,22033AC,2023/3/4 4:22,197024,15.34715896,0.000788,97.3573,146.391,182.3153,177.8055,0,999,5129,0.001969,0.00066735,0,3851043,0 SPACEBEE-133,1 52183U 22033AC  23063.18213191  .00066735  00000-0  19690-2 0  9993,2 52183  97.3573 146.3910 0007880 182.3153 177.8055 15.34715896 51294,2022-033AC,52183,6839.901,93.828,467.156,456.377,1,
GENERATED VIA SPACETRACK.ORG API,18 SPCS,52183,SPACEBEE-133,PAYLOAD,U,22033AC,2023/3/4 4:22,197024,15.34715896,0.000788,97.3573,146.391,182.3153,177.8055,0,999,5130,0.001969,0.00066735,0,3851072,0 SPACEBEE-133,1 52183U 22033AC  23063.18213191  .00066735  00000-0  19690-2 0  9993,2 52183  97.3573 146.3910 0007880 182.3153 177.8055 15.34715896 51306,2022-033AC,52183,6839.901,93.828,467.156,456.377,1,
GENERATED VIA SPACETRACK.ORG API,18 SPCS,52183,SPACEBEE-133,PAYLOAD,U,22033AC,2023/3/4 16:53,904800,15.34796174,0.0007776,97.3577,146.9121,180.4945,179.6292,0,999,5137,0.0022913,0.00077982,0,3851316,0 SPACEBEE-133,1 52183U 22033AC  23063.70372575  .00077982  00000-0  22913-2 0  9991,2 52183  97.3577 146.9121 0007776 180.4945 179.6292 15.34796174 51370,2022-033AC,52183,6839.663,93.824,466.847,456.209,1,
GENERATED VIA SPACETRACK.ORG API,18 SPCS,52183,SPACEBEE-133,PAYLOAD,U,22033AC,2023/3/4 16:53,904800,15.34796174,0.0007776,97.3577,146.9121,180.4945,179.6292,0,999,5138,0.0022913,0.00077982,0,3851350,0 SPACEBEE-133,1 52183U 22033AC  23063.70372575  .00077982  00000-0  22913-2 0  9991,2 52183  97.3577 146.9121 0007776 180.4945 179.6292 15.34796174 51381,2022-033AC,52183,6839.663,93.824,466.847,456.209,1,
GENERATED VIA SPACETRACK.ORG API,18 SPCS,52183,SPACEBEE-133,PAYLOAD,U,22033AC,2023/3/5 3:50,603712,15.34862413,0.000788,97.3566,147.3661,178.5475,181.5793,0,999,5145,0.0021285,0.00072538,0,3851939,0 SPACEBEE-133,1 52183U 22033AC  23064.16009958  .00072538  00000-0  21285-2 0  9997,2 52183  97.3566 147.3661 0007880 178.5475 181.5793 15.34862413 51451,2022-033AC,52183,6839.466,93.819,466.721,455.942,1,
GENERATED VIA SPACETRACK.ORG API,18 SPCS,52183,SPACEBEE-133,PAYLOAD,U,22033AC,2023/3/5 17:55,783328,15.34941869,0.0007804,97.3564,147.9518,176.658,183.4717,0,999,5153,0.0020738,0.00070833,0,3852219,0 SPACEBEE-133,1 52183U 22033AC  23064.74683777  .00070833  00000-0  20738-2 0  9996,2 52183  97.3564 147.9518 0007804 176.6580 183.4717 15.34941869 51537,2022-033AC,52183,6839.23,93.815,466.433,455.758,1,
GENERATED VIA SPACETRACK.ORG API,18 SPCS,52183,SPACEBEE-133,PAYLOAD,U,22033AC,2023/3/5 17:55,783328,15.34941869,0.0007804,97.3564,147.9518,176.658,183.4717,0,999,5154,0.0020738,0.00070833,0,3852256,0 SPACEBEE-133,1 52183U 22033AC  23064.74683777  .00070833  00000-0  20738-2 0  9996,2 52183  97.3564 147.9518 0007804 176.6580 183.4717 15.34941869 51548,2022-033AC,52183,6839.23,93.815,466.433,455.758,1,
GENERATED VIA SPACETRACK.ORG API,18 SPCS,52183,SPACEBEE-133,PAYLOAD,U,22033AC,2023/3/6 4:52,402432,15.35022767,0.000789,97.3562,148.4068,175.3812,184.7506,0,999,5160,0.0023233,0.00079662,0,3852502,0 SPACEBEE-133,1 52183U 22033AC  23065.20316438  .00079662  00000-0  23233-2 0  9997,2 52183  97.3562 148.4068 0007890 175.3812 184.7506 15.35022767 51606,2022-033AC,52183,6838.99,93.81,466.251,455.459,1,
GENERATED VIA SPACETRACK.ORG API,18 SPCS,52183,SPACEBEE-133,PAYLOAD,U,22033AC,2023/3/6 15:49,338464,15.35080456,0.0007779,97.356,148.8625,173.8154,186.3187,0,999,5167,0.0018957,0.00064979,0,3853079,0 SPACEBEE-133,1 52183U 22033AC  23065.65947151  .00064979  00000-0  18957-2 0  9990,2 52183  97.3560 148.8625 0007779 173.8154 186.3187 15.35080456 51674,2022-033AC,52183,6838.819,93.806,466.003,455.364,1,
GENERATED VIA SPACETRACK.ORG API,18 SPCS,52183,SPACEBEE-133,PAYLOAD,U,22033AC,2023/3/6 15:49,338464,15.35080456,0.0007779,97.356,148.8625,173.8154,186.3187,0,999,5168,0.0018957,0.00064979,0,3853141,0 SPACEBEE-133,1 52183U 22033AC  23065.65947151  .00064979  00000-0  18957-2 0  9990,2 52183  97.3560 148.8625 0007779 173.8154 186.3187 15.35080456 51685,2022-033AC,52183,6838.819,93.806,466.003,455.364,1,
GENERATED VIA SPACETRACK.ORG API,18 SPCS,52183,SPACEBEE-133,PAYLOAD,U,22033AC,2023/3/7 4:20,72576,15.35173964,0.0007814,97.3561,149.3824,172.6636,187.4723,0,999,5175,0.0023055,0.00079428,0,3853493,0 SPACEBEE-133,1 52183U 22033AC  23066.18093834  .00079428  00000-0  23055-2 0  9999,2 52183  97.3561 149.3824 0007814 172.6636 187.4723 15.35173964 51758,2022-033AC,52183,6838.541,93.8,465.749,455.062,1,
GENERATED VIA SPACETRACK.ORG API,18 SPCS,52183,SPACEBEE-133,PAYLOAD,U,22033AC,2023/3/7 4:20,72576,15.35173964,0.0007814,97.3561,149.3824,172.6636,187.4723,0,999,5176,0.0023055,0.00079428,0,3854072,0 SPACEBEE-133,1 52183U 22033AC  23066.18093834  .00079428  00000-0  23055-2 0  9999,2 52183  97.3561 149.3824 0007814 172.6636 187.4723 15.35173964 51769,2022-033AC,52183,6838.541,93.8,465.749,455.062,1,
GENERATED VIA SPACETRACK.ORG API,18 SPCS,52183,SPACEBEE-133,PAYLOAD,U,22033AC,2023/3/8 5:22,413664,15.35333236,0.0007759,97.356,150.4231,169.1129,191.0284,0,999,5191,0.0019429,0.00067155,0,3854318,0 SPACEBEE-133,1 52183U 22033AC  23067.22378951  .00067155  00000-0  19429-2 0  9995,2 52183  97.3560 150.4231 0007759 169.1129 191.0284 15.35333236 51919,2022-033AC,52183,6838.068,93.791,465.239,454.627,1,
GENERATED VIA SPACETRACK.ORG API,18 SPCS,52183,SPACEBEE-133,PAYLOAD,U,22033AC,2023/3/8 16:19,407808,15.35403327,0.0007634,97.3553,150.8789,167.9115,192.2313,0,999,5198,0.0029473,0.0010261,0,3855064,0 SPACEBEE-133,1 52183U 22033AC  23067.68000472  .00102610  00000-0  29473-2 0  9991,2 52183  97.3553 150.8789 0007634 167.9115 192.2313 15.35403327 51988,2022-033AC,52183,6837.86,93.786,464.945,454.505,1,
GENERATED VIA SPACETRACK.ORG API,18 SPCS,52183,SPACEBEE-133,PAYLOAD,U,22033AC,2023/3/8 16:19,407808,15.35403327,0.0007634,97.3553,150.8789,167.9115,192.2313,0,999,5199,0.0029473,0.0010261,0,3855077,0 SPACEBEE-133,1 52183U 22033AC  23067.68000472  .00102610  00000-0  29473-2 0  9991,2 52183  97.3553 150.8789 0007634 167.9115 192.2313 15.35403327 51999,2022-033AC,52183,6837.86,93.786,464.945,454.505,1,
GENERATED VIA SPACETRACK.ORG API,18 SPCS,52183,SPACEBEE-133,PAYLOAD,U,22033AC,2023/3/9 4:49,81152,15.35481436,0.0007686,97.3549,151.3989,166.8073,193.3373,0,999,5206,0.0022864,0.00079543,0,3855374,0 SPACEBEE-133,1 52183U 22033AC  23068.20136668  .00079543  00000-0  22864-2 0  9992,2 52183  97.3549 151.3989 0007686 166.8073 193.3373 15.35481436 52064,2022-033AC,52183,6837.628,93.782,464.748,454.237,1,
GENERATED VIA SPACETRACK.ORG API,18 SPCS,52183,SPACEBEE-133,PAYLOAD,U,22033AC,2023/3/9 15:46,18816,15.35562017,0.0007571,97.3553,151.8549,165.4936,194.6527,0,999,5214,0.0027651,0.00096673,0,3855951,0 SPACEBEE-133,1 52183U 22033AC  23068.65753494  .00096673  00000-0  27651-2 0  9995,2 52183  97.3553 151.8549 0007571 165.4936 194.6527 15.35562017 52141,2022-033AC,52183,6837.389,93.777,464.43,454.077,1,
GENERATED VIA SPACETRACK.ORG API,18 SPCS,52183,SPACEBEE-133,PAYLOAD,U,22033AC,2023/3/10 12:06,925376,15.3570496,0.0007525,97.3552,152.7008,162.7168,197.4333,0,999,5226,0.00253,0.00088758,0,3856583,0 SPACEBEE-133,1 52183U 22033AC  23069.50464034  .00088758  00000-0  25300-2 0  9993,2 52183  97.3552 152.7008 0007525 162.7168 197.4333 15.35704960 52260,2022-033AC,52183,6836.964,93.768,463.974,453.685,1,
GENERATED VIA SPACETRACK.ORG API,18 SPCS,52183,SPACEBEE-133,PAYLOAD,U,22033AC,2023/3/10 19:55,139040,15.35755826,0.0007522,97.355,153.0262,161.6157,198.536,0,999,5232,0.002191,0.0007686,0,3856975,0 SPACEBEE-133,1 52183U 22033AC  23069.83042985  .00076860  00000-0  21910-2 0  9990,2 52183  97.3550 153.0262 0007522 161.6157 198.5360 15.35755826 52323,2022-033AC,52183,6836.813,93.765,463.821,453.536,1,
GENERATED VIA SPACETRACK.ORG API,18 SPCS,52183,SPACEBEE-133,PAYLOAD,U,22033AC,2023/3/11 5:18,734688,15.35822612,0.0007573,97.3549,153.4164,160.2657,199.8881,0,999,5237,0.0022888,0.00080505,0,3857552,0 SPACEBEE-133,1 52183U 22033AC  23070.22136267  .00080505  00000-0  22888-2 0  9998,2 52183  97.3549 153.4164 0007573 160.2657 199.8881 15.35822612 52377,2022-033AC,52183,6836.615,93.761,463.658,453.303,1,
GENERATED VIA SPACETRACK.ORG API,18 SPCS,52183,SPACEBEE-133,PAYLOAD,U,22033AC,2023/3/11 5:18,734688,15.35822612,0.0007573,97.3549,153.4164,160.2657,199.8881,0,999,5238,0.0022888,0.00080505,0,3857581,0 SPACEBEE-133,1 52183U 22033AC  23070.22136267  .00080505  00000-0  22888-2 0  9998,2 52183  97.3549 153.4164 0007573 160.2657 199.8881 15.35822612 52388,2022-033AC,52183,6836.615,93.761,463.658,453.303,1,
GENERATED VIA SPACETRACK.ORG API,18 SPCS,52183,SPACEBEE-133,PAYLOAD,U,22033AC,2023/3/11 16:15,131712,15.35882943,0.0007477,97.3545,153.8725,158.6627,201.493,0,999,5244,0.0019403,0.00068256,0,3857801,0 SPACEBEE-133,1 52183U 22033AC  23070.67743208  .00068256  00000-0  19403-2 0  9994,2 52183  97.3545 153.8725 0007477 158.6627 201.4930 15.35882943 52447,2022-033AC,52183,6836.436,93.757,463.413,453.19,1,
